OBJECT_NAME,OBJECT_ID,EPOCH,MEAN_MOTION,ECCENTRICITY,INCLINATION,RA_OF_ASC_NODE,ARG_OF_PERICENTER,MEAN_ANOMALY,EPHEMERIS_TYPE,CLASSIFICATION_TYPE,NORAD_CAT_ID,ELEMENT_SET_NO,REV_AT_EPOCH,BSTAR,MEAN_MOTION_DOT,MEAN_MOTION_DDOT
INTELSAT 902 (IS-902),2001-039A,2026-06-07T04:37:58.935936,1.00270646,.0004296,6.0933,71.9037,1.6561,201.4206,0,U,26900,999,9059,0,-.27E-5,0
INTELSAT 904 (IS-904),2002-007A,2026-06-06T15:02:01.861152,1.00270083,.0007136,6.8931,69.3106,0.5431,19.1983,0,U,27380,999,5166,0,-.213E-5,0
DIRECTV 5 (TEMPO 1),2002-023A,2026-06-07T06:03:34.691040,1.00271713,.00034158,4.8516,75.4335,9.6347,151.3837,0,U,27426,999,8802,0,-.43E-6,0
INTELSAT 905 (IS-905),2002-027A,2026-06-07T06:27:31.580064,1.00272986,.00041046,6.7279,69.9191,14.8881,130.5427,0,U,27438,999,5126,0,.107E-5,0
GALAXY 3C (G-3C),2002-030A,2026-06-07T05:30:38.727360,1.00271611,.00018783,3.7043,78.1092,31.3729,133.9666,0,U,27445,999,4639,0,-.138E-5,0
INTELSAT 906 (IS-906),2002-041A,2026-06-06T23:57:21.517344,1.00271051,.00047381,5.7780,73.0447,356.8843,248.9538,0,U,27513,999,8692,0,.27E-6,0
GALAXY 13 (HORIZONS-1),2003-044A,2026-06-07T06:53:12.555168,1.00272774,.00020842,1.3947,83.9775,346.9932,138.0068,0,U,27954,999,4647,0,.147E-5,0
INTELSAT 10-02,2004-022A,2026-06-07T01:26:44.119968,1.00270601,.00005434,0.0098,327.1020,191.5219,117.5218,0,U,28358,999,8045,0,.3E-7,0
DIRECTV 8,2005-019A,2026-06-07T05:35:05.875296,1.00269832,.00029635,0.0167,353.7760,87.5777,139.0074,0,U,28659,999,7697,0,0,0
GALAXY 28 (G-28),2005-022A,2026-06-07T05:25:21.481248,1.00275454,.0002925,3.2741,79.0523,352.7577,238.0527,0,U,28702,999,5187,0,-.185E-5,0
GALAXY 16 (G-16),2006-023A,2026-06-07T04:33:38.610144,1.00272052,.00027418,0.0071,261.6261,173.2606,150.1251,0,U,29236,999,7287,0,-.113E-5,0
DIRECTV 9S,2006-043A,2026-06-07T04:33:38.610144,1.00271708,.00050961,2.3941,81.0228,5.7338,136.0686,0,U,29494,999,5128,0,-.99E-6,0
GALAXY 17 (G-17),2007-016B,2026-06-07T05:30:38.727360,1.00272180,.00048908,2.9461,80.0258,14.2565,159.0265,0,U,31307,999,6970,0,-.192E-5,0
INTELSAT 11 (IS-11),2007-044B,2026-06-07T03:58:04.293408,0.99053818,.00017994,3.5386,78.7908,79.7142,326.4349,0,U,32253,999,6835,0,-.201E-5,0
HORIZONS-2,2007-063B,2026-06-07T05:22:38.778816,1.00272505,.00040665,2.5756,80.7480,354.2063,187.5699,0,U,32388,999,6771,0,-.239E-5,0
DIRECTV 11,2008-013A,2026-06-06T23:16:00.333120,1.00270478,.00005473,0.0213,206.3204,187.6583,111.2260,0,U,32729,999,4549,0,-.112E-5,0
GALAXY 18 (G-18),2008-024A,2026-06-07T05:59:57.539328,1.00272793,.00031992,0.0233,68.2085,17.9011,136.5334,0,U,32951,999,4575,0,.39E-6,0
INTELSAT 25 (IS-25),2008-034A,2026-06-07T05:39:37.960992,0.99020802,.00019119,2.6818,80.4486,30.5729,35.5249,0,U,33153,999,6559,0,-.221E-5,0
GALAXY 19 (G-19),2008-045A,2026-06-07T05:36:39.867264,1.00274549,.00028531,0.0199,73.4393,357.5568,171.8237,0,U,33376,999,6480,0,-.125E-5,0
FM-5,2009-034A,2026-06-07T05:30:38.727360,1.00273526,.00004994,0.0169,291.4843,21.2637,299.4004,0,U,35493,999,4654,0,-.186E-5,0
INTELSAT 14 (IS-14),2009-064A,2026-06-07T07:43:07.067712,1.00271481,.00028369,0.0162,329.4096,122.1194,234.9917,0,U,36097,999,6050,0,-.259E-5,0
INTELSAT 15 (IS-15),2009-067A,2026-06-07T01:51:18.281088,1.00271931,.00023721,0.0120,331.0875,107.5623,289.8177,0,U,36106,999,4112,0,-.171E-5,0
DIRECTV 12,2009-075A,2026-06-07T04:33:38.610144,1.00271322,.00002868,0.0435,142.8161,271.3664,167.1111,0,U,36131,999,4645,0,-.89E-6,0
INTELSAT 16 (IS-16),2010-006A,2026-06-07T05:22:38.778816,1.00271041,.00021906,0.0224,48.7024,41.2285,170.1791,0,U,36397,999,5955,0,-.23E-5,0
XM-5,2010-053A,2026-06-07T00:54:11.150784,1.00271550,.00027653,0.0647,273.0346,281.3601,319.4134,0,U,37185,999,5738,0,-.9E-7,0
INTELSAT 17 (IS-17),2010-065B,2026-06-07T03:13:38.943264,1.00272076,.00025793,0.0095,104.6758,347.3853,277.8919,0,U,37238,999,5314,0,.12E-6,0
INTELSAT 28 (IS-28),2011-016A,2026-06-07T07:36:18.533952,1.00269111,.00039431,1.7798,82.7456,353.7356,261.6225,0,U,37392,999,5318,0,-.211E-5,0
INTELSAT 18 (IS-18),2011-056A,2026-06-07T05:43:37.577568,1.00272104,.00021649,0.0185,316.5654,133.0995,71.8904,0,U,37834,999,5371,0,.67E-6,0
INTELSAT 22 (IS-22),2012-011A,2026-06-07T03:13:38.943264,1.00273293,.00016082,0.0188,57.7505,7.8725,310.4276,0,U,38098,999,708,0,-.45E-6,0
INTELSAT 19 (IS-19),2012-030A,2026-06-07T05:39:37.960992,1.00271483,.00031098,0.0087,27.3737,56.4946,62.6861,0,U,38356,999,5035,0,-.42E-6,0
INTELSAT 20 (IS-20),2012-043A,2026-06-07T03:13:38.943264,1.00271971,.00015771,0.0013,29.9800,146.4747,195.9937,0,U,38740,999,5064,0,-.1E-6,0
