INTELSAT 902 (IS-902)   
1 26900U 01039A   26158.19304324 -.00000270  00000+0  00000+0 0  9996
2 26900   6.0933  71.9037 0004296   1.6561 201.4206  1.00270646 90591
INTELSAT 904 (IS-904)   
1 27380U 02007A   26157.62641043 -.00000213  00000+0  00000+0 0  9991
2 27380   6.8931  69.3106 0007136   0.5431  19.1983  1.00270083 51664
DIRECTV 5 (TEMPO 1)     
1 27426U 02023A   26158.25248485 -.00000043  00000+0  00000+0 0  9994
2 27426   4.8516  75.4335 0003415   9.6347 151.3837  1.00271713 88024
INTELSAT 905 (IS-905)   
1 27438U 02027A   26158.26911551  .00000107  00000+0  00000+0 0  9993
2 27438   6.7279  69.9191 0004104  14.8881 130.5427  1.00272986 51262
GALAXY 3C (G-3C)        
1 27445U 02030A   26158.22961490 -.00000138  00000+0  00000+0 0  9993
2 27445   3.7043  78.1092 0001878  31.3729 133.9666  1.00271611 46392
INTELSAT 906 (IS-906)   
1 27513U 02041A   26157.99816571  .00000027  00000+0  00000+0 0  9999
2 27513   5.7780  73.0447 0004738 356.8843 248.9538  1.00271051 86922
GALAXY 13 (HORIZONS-1)  
1 27954U 03044A   26158.28695087  .00000147  00000+0  00000+0 0  9995
2 27954   1.3947  83.9775 0002084 346.9932 138.0068  1.00272774 46479
INTELSAT 10-02          
1 28358U 04022A   26158.06023287  .00000003  00000+0  00000+0 0  9995
2 28358   0.0098 327.1020 0000543 191.5219 117.5218  1.00270601 80459
DIRECTV 8               
1 28659U 05019A   26158.23270689  .00000000  00000+0  00000+0 0  9992
2 28659   0.0167 353.7760 0002963  87.5777 139.0074  1.00269832 76972
GALAXY 28 (G-28)        
1 28702U 05022A   26158.22594307 -.00000185  00000+0  00000+0 0  9995
2 28702   3.2741  79.0523 0002925 352.7577 238.0527  1.00275454 51874
GALAXY 16 (G-16)        
1 29236U 06023A   26158.19003021 -.00000113  00000+0  00000+0 0  9995
2 29236   0.0071 261.6261 0002741 173.2606 150.1251  1.00272052 72873
DIRECTV 9S              
1 29494U 06043A   26158.19003021 -.00000099  00000+0  00000+0 0  9996
2 29494   2.3941  81.0228 0005096   5.7338 136.0686  1.00271708 51288
GALAXY 17 (G-17)        
1 31307U 07016B   26158.22961490 -.00000192  00000+0  00000+0 0  9994
2 31307   2.9461  80.0258 0004890  14.2565 159.0265  1.00272180 69706
INTELSAT 11 (IS-11)     
1 32253U 07044B   26158.16532747 -.00000201  00000+0  00000+0 0  9999
2 32253   3.5386  78.7908 0001799  79.7142 326.4349  0.99053818 68353
HORIZONS-2              
1 32388U 07063B   26158.22405994 -.00000239  00000+0  00000+0 0  9990
2 32388   2.5756  80.7480 0004066 354.2063 187.5699  1.00272505 67715
DIRECTV 11              
1 32729U 08013A   26157.96944830 -.00000112  00000+0  00000+0 0  9992
2 32729   0.0213 206.3204 0000547 187.6583 111.2260  1.00270478 45496
GALAXY 18 (G-18)        
1 32951U 08024A   26158.24997152  .00000039  00000+0  00000+0 0  9995
2 32951   0.0233  68.2085 0003199  17.9011 136.5334  1.00272793 45757
INTELSAT 25 (IS-25)     
1 33153U 08034A   26158.23585603 -.00000221  00000+0  00000+0 0  9998
2 33153   2.6818  80.4486 0001911  30.5729  35.5249  0.99020802 65593
GALAXY 19 (G-19)        
1 33376U 08045A   26158.23379476 -.00000125  00000+0  00000+0 0  9999
2 33376   0.0199  73.4393 0002853 357.5568 171.8237  1.00274549 64808
FM-5                    
1 35493U 09034A   26158.22961490 -.00000186  00000+0  00000+0 0  9999
2 35493   0.0169 291.4843 0000499  21.2637 299.4004  1.00273526 46549
INTELSAT 14 (IS-14)     
1 36097U 09064A   26158.32160958 -.00000259  00000+0  00000+0 0  9995
2 36097   0.0162 329.4096 0002836 122.1194 234.9917  1.00271481 60508
INTELSAT 15 (IS-15)     
1 36106U 09067A   26158.07729492 -.00000171  00000+0  00000+0 0  9998
2 36106   0.0120 331.0875 0002372 107.5623 289.8177  1.00271931 41120
DIRECTV 12              
1 36131U 09075A   26158.19003021 -.00000089  00000+0  00000+0 0  9999
2 36131   0.0435 142.8161 0000286 271.3664 167.1111  1.00271322 46451
INTELSAT 16 (IS-16)     
1 36397U 10006A   26158.22405994 -.00000230  00000+0  00000+0 0  9996
2 36397   0.0224  48.7024 0002190  41.2285 170.1791  1.00271041 59553
XM-5                    
1 37185U 10053A   26158.03762906 -.00000009  00000+0  00000+0 0  9996
2 37185   0.0647 273.0346 0002765 281.3601 319.4134  1.00271550 57388
INTELSAT 17 (IS-17)     
1 37238U 10065B   26158.13447851  .00000012  00000+0  00000+0 0  9991
2 37238   0.0095 104.6758 0002579 347.3853 277.8919  1.00272076 53147
INTELSAT 28 (IS-28)     
1 37392U 11016A   26158.31688118 -.00000211  00000+0  00000+0 0  9994
2 37392   1.7798  82.7456 0003943 353.7356 261.6225  1.00269111 53183
INTELSAT 18 (IS-18)     
1 37834U 11056A   26158.23862937  .00000067  00000+0  00000+0 0  9991
2 37834   0.0185 316.5654 0002164 133.0995  71.8904  1.00272104 53716
INTELSAT 22 (IS-22)     
1 38098U 12011A   26158.13447851 -.00000045  00000+0  00000+0 0  9996
2 38098   0.0188  57.7505 0001608   7.8725 310.4276  1.00273293  7085
INTELSAT 19 (IS-19)     
1 38356U 12030A   26158.23585603 -.00000042  00000+0  00000+0 0  9990
2 38356   0.0087  27.3737 0003109  56.4946  62.6861  1.00271483 50356
INTELSAT 20 (IS-20)     
1 38740U 12043A   26158.13447851 -.00000010  00000+0  00000+0 0  9997
2 38740   0.0013  29.9800 0001577 146.4747 195.9937  1.00271971 50645
